[{"OBJECT_NAME":"OBJECT B","OBJECT_ID":"2024-205B","EPOCH":"2026-03-09T23:46:05.115936","MEAN_MOTION":15.28158697,"ECCENTRICITY":0.00105957,"INCLINATION":97.4192,"RA_OF_ASC_NODE":146.9311,"ARG_OF_PERICENTER":34.0947,"MEAN_ANOMALY":326.0972,"EPHEMERIS_TYPE":0,"CLASSIFICATION_TYPE":"U","NORAD_CAT_ID":61895,"ELEMENT_SET_NO":999,"REV_AT_EPOCH":7352,"BSTAR":0.00054154807,"MEAN_MOTION_DOT":0.00014827,"MEAN_MOTION_DDOT":0},{"OBJECT_NAME":"STARLINK-35853","OBJECT_ID":"2025-303Q","EPOCH":"2026-03-08T16:54:01.047456","MEAN_MOTION":15.27576586,"ECCENTRICITY":0.00012497,"INCLINATION":42.9964,"RA_OF_ASC_NODE":316.3452,"ARG_OF_PERICENTER":280.8737,"MEAN_ANOMALY":79.1974,"EPHEMERIS_TYPE":0,"CLASSIFICATION_TYPE":"U","NORAD_CAT_ID":67177,"ELEMENT_SET_NO":999,"REV_AT_EPOCH":1258,"BSTAR":0.00053714083,"MEAN_MOTION_DOT":0.00014547,"MEAN_MOTION_DDOT":0}]
